{
  "norad_id": 63027,
  "name": "GLOBAL-31",
  "history": [
    {
      "epoch": "2026-03-28T20:52:18.698304Z",
      "apogee_km": 456.16466618730374,
      "perigee_km": 440.0929060205008,
      "latitude_deg": -2.2460748440759392e-05,
      "longitude_deg": 141.38406420596166,
      "height_km": 444.06438519282653,
      "semi_major_axis_km": 6826.2657861039015,
      "eccentricity": 0.0011772,
      "inclination_deg": 58.9985,
      "raan_deg": 280.7459,
      "arg_perigee_deg": 46.2302,
      "mean_anomaly_deg": 313.9746,
      "mean_motion_rev_day": 15.39316665
    }
  ]
}